[{"OBJECT_NAME":"CARTOSAT-2F","OBJECT_ID":"2018-004A","EPOCH":"2026-03-09T22:50:21.052320","MEAN_MOTION":15.19266774,"ECCENTRICITY":8.279e-5,"INCLINATION":97.4159,"RA_OF_ASC_NODE":130.1064,"ARG_OF_PERICENTER":205.5127,"MEAN_ANOMALY":154.6067,"EPHEMERIS_TYPE":0,"CLASSIFICATION_TYPE":"U","NORAD_CAT_ID":43111,"ELEMENT_SET_NO":999,"REV_AT_EPOCH":45226,"BSTAR":0.00021023893,"MEAN_MOTION_DOT":4.366e-5,"MEAN_MOTION_DDOT":0},{"OBJECT_NAME":"SCS-01 E","OBJECT_ID":"2025-100E","EPOCH":"2026-03-09T19:37:36.788160","MEAN_MOTION":15.18808974,"ECCENTRICITY":0.00041864,"INCLINATION":97.4267,"RA_OF_ASC_NODE":144.0575,"ARG_OF_PERICENTER":16.3517,"MEAN_ANOMALY":343.7852,"EPHEMERIS_TYPE":0,"CLASSIFICATION_TYPE":"U","NORAD_CAT_ID":63986,"ELEMENT_SET_NO":999,"REV_AT_EPOCH":4552,"BSTAR":0.00039415521,"MEAN_MOTION_DOT":8.14e-5,"MEAN_MOTION_DDOT":0}]
